SL-8 R/B                
1 21088U 91006B   26113.45092806  .00000147  00000+0  13203-3 0  9995
2 21088  82.9402 136.7585 0020931 269.7387 200.5925 13.77503561770238
OKEAN-3                 
1 21397U 91039A   26113.49314551  .00001977  00000+0  13698-3 0  9992
2 21397  82.5130 293.4160 0014258 171.3870 188.7604 15.05038710871779
COSMOS 2151             
1 21422U 91042A   26113.50530750  .00001049  00000+0  81565-4 0  9997
2 21422  82.4985  40.4389 0010599 268.7253  91.2756 15.00285338869912
SL-14 R/B               
1 21423U 91042B   26113.12155990  .00000246  00000+0  27973-4 0  9996
2 21423  82.4949 178.5316 0018612  95.0990 265.2349 14.81868429859656
ERS-1                   
1 21574U 91050A   26113.04479100  .00000207  00000+0  80893-4 0  9992
2 21574  98.7838 132.3878 0033050  71.6045 288.8731 14.39481197822118
ARIANE 40 R/B           
1 21610U 91050F   26113.12898834  .00000170  00000+0  63218-4 0  9992
2 21610  98.1926 163.6778 0001929 315.8911  44.2126 14.42923312825403
INTERCOSMOS 25          
1 21819U 91086A   26113.47673526  .00000520  00000+0  97636-4 0  9999
2 21819  82.5991 282.9199 1485743  20.4107 345.0416 12.12126008502118
SL-8 R/B                
1 21876U 92008B   26113.57816709  .00000046  00000+0  31548-4 0  9993
2 21876  82.9276 234.3847 0034735  11.5735 359.8536 13.75970382715596
SL-8 R/B                
1 21938U 92020B   26113.51146213 -.00000039  00000+0 -56035-4 0  9998
2 21938  82.9269 120.4723 0029241 169.8830 310.1054 13.75548747707293
USA 81                  
1 21949U 92023A   26113.01823340  .00000132  00000+0  41641-4 0  9990
2 21949  85.0035 105.8509 0001268  99.1209 261.0127 14.32381525101132
COSMOS 2219             
1 22219U 92076A   26112.87380051  .00000343  00000+0  20442-3 0  9998
2 22219  71.0590 285.7028 0016995 137.3017 222.9430 14.14093399724620
SL-16 R/B               
1 22220U 92076B   26113.32336387 -.00000229  00000+0 -90344-4 0  9998
2 22220  70.9982  94.3530 0011929  16.6488  84.6583 14.16866134728151
COSMOS 2221             
1 22236U 92080A   26113.57631452  .00001304  00000+0  11261-3 0  9991
2 22236  82.5043 236.0737 0015165  46.5379 313.7101 14.96380019787503
SL-16 R/B               
1 22285U 92093B   26113.47356762  .00000298  00000+0  17712-3 0  9994
2 22285  71.0205 270.2498 0006193 247.9428 112.1038 14.15455846719492
COSMOS 2228             
1 22286U 92094A   26113.49562997  .00001406  00000+0  11827-3 0  9990
2 22286  82.5205 194.4160 0018893 147.6040 212.6347 14.97401234782760
SL-16 R/B               
1 22566U 93016B   26113.30645454 -.00000288  00000+0 -12325-3 0  9999
2 22566  71.0039 121.4755 0012617 257.9718 101.9991 14.15310501708482
COSMOS 2242             
1 22626U 93024A   26113.56434823  .00001381  00000+0  11824-3 0  9995
2 22626  82.5204 223.7874 0017116 150.4546 209.7647 14.96734954787105
