[{"OBJECT_NAME":"SL-8 R/B","OBJECT_ID":"1991-006B","EPOCH":"2026-04-23T10:49:20.184384","MEAN_MOTION":13.77503561,"ECCENTRICITY":0.0020931,"INCLINATION":82.9402,"RA_OF_ASC_NODE":136.7585,"ARG_OF_PERICENTER":269.7387,"MEAN_ANOMALY":200.5925,"EPHEMERIS_TYPE":0,"CLASSIFICATION_TYPE":"U","NORAD_CAT_ID":21088,"ELEMENT_SET_NO":999,"REV_AT_EPOCH":77023,"BSTAR":0.00013202879,"MEAN_MOTION_DOT":1.47e-6,"MEAN_MOTION_DDOT":0},{"OBJECT_NAME":"OKEAN-3","OBJECT_ID":"1991-039A","EPOCH":"2026-04-23T11:50:07.772064","MEAN_MOTION":15.0503871,"ECCENTRICITY":0.00142585,"INCLINATION":82.513,"RA_OF_ASC_NODE":293.416,"ARG_OF_PERICENTER":171.387,"MEAN_ANOMALY":188.7604,"EPHEMERIS_TYPE":0,"CLASSIFICATION_TYPE":"U","NORAD_CAT_ID":21397,"ELEMENT_SET_NO":999,"REV_AT_EPOCH":87177,"BSTAR":0.00013697848,"MEAN_MOTION_DOT":1.977e-5,"MEAN_MOTION_DDOT":0},{"OBJECT_NAME":"COSMOS 2151","OBJECT_ID":"1991-042A","EPOCH":"2026-04-23T12:07:38.568000","MEAN_MOTION":15.00285338,"ECCENTRICITY":0.00105991,"INCLINATION":82.4985,"RA_OF_ASC_NODE":40.4389,"ARG_OF_PERICENTER":268.7253,"MEAN_ANOMALY":91.2756,"EPHEMERIS_TYPE":0,"CLASSIFICATION_TYPE":"U","NORAD_CAT_ID":21422,"ELEMENT_SET_NO":999,"REV_AT_EPOCH":86991,"BSTAR":8.1564794e-5,"MEAN_MOTION_DOT":1.049e-5,"MEAN_MOTION_DDOT":0},{"OBJECT_NAME":"SL-14 R/B","OBJECT_ID":"1991-042B","EPOCH":"2026-04-23T02:55:02.775360","MEAN_MOTION":14.81868429,"ECCENTRICITY":0.00186127,"INCLINATION":82.4949,"RA_OF_ASC_NODE":178.5316,"ARG_OF_PERICENTER":95.099,"MEAN_ANOMALY":265.2349,"EPHEMERIS_TYPE":0,"CLASSIFICATION_TYPE":"U","NORAD_CAT_ID":21423,"ELEMENT_SET_NO":999,"REV_AT_EPOCH":85965,"BSTAR":2.7973224e-5,"MEAN_MOTION_DOT":2.46e-6,"MEAN_MOTION_DDOT":0},{"OBJECT_NAME":"ERS-1","OBJECT_ID":"1991-050A","EPOCH":"2026-04-23T01:04:29.942400","MEAN_MOTION":14.39481197,"ECCENTRICITY":0.00330506,"INCLINATION":98.7838,"RA_OF_ASC_NODE":132.3878,"ARG_OF_PERICENTER":71.6045,"MEAN_ANOMALY":288.8731,"EPHEMERIS_TYPE":0,"CLASSIFICATION_TYPE":"U","NORAD_CAT_ID":21574,"ELEMENT_SET_NO":999,"REV_AT_EPOCH":82211,"BSTAR":8.0893407e-5,"MEAN_MOTION_DOT":2.07e-6,"MEAN_MOTION_DDOT":0},{"OBJECT_NAME":"ARIANE 40 R/B","OBJECT_ID":"1991-050F","EPOCH":"2026-04-23T03:05:44.592576","MEAN_MOTION":14.42923312,"ECCENTRICITY":0.00019293,"INCLINATION":98.1926,"RA_OF_ASC_NODE":163.6778,"ARG_OF_PERICENTER":315.8911,"MEAN_ANOMALY":44.2126,"EPHEMERIS_TYPE":0,"CLASSIFICATION_TYPE":"U","NORAD_CAT_ID":21610,"ELEMENT_SET_NO":999,"REV_AT_EPOCH":82540,"BSTAR":6.3218249e-5,"MEAN_MOTION_DOT":1.7e-6,"MEAN_MOTION_DDOT":0},{"OBJECT_NAME":"INTERCOSMOS 25","OBJECT_ID":"1991-086A","EPOCH":"2026-04-23T11:26:29.926464","MEAN_MOTION":12.12126008,"ECCENTRICITY":0.1485743,"INCLINATION":82.5991,"RA_OF_ASC_NODE":282.9199,"ARG_OF_PERICENTER":20.4107,"MEAN_ANOMALY":345.0416,"EPHEMERIS_TYPE":0,"CLASSIFICATION_TYPE":"U","NORAD_CAT_ID":21819,"ELEMENT_SET_NO":999,"REV_AT_EPOCH":50211,"BSTAR":9.7635584e-5,"MEAN_MOTION_DOT":5.2e-6,"MEAN_MOTION_DDOT":0},{"OBJECT_NAME":"SL-8 R/B","OBJECT_ID":"1992-008B","EPOCH":"2026-04-23T13:52:33.636576","MEAN_MOTION":13.75970382,"ECCENTRICITY":0.00347357,"INCLINATION":82.9276,"RA_OF_ASC_NODE":234.3847,"ARG_OF_PERICENTER":11.5735,"MEAN_ANOMALY":359.8536,"EPHEMERIS_TYPE":0,"CLASSIFICATION_TYPE":"U","NORAD_CAT_ID":21876,"ELEMENT_SET_NO":999,"REV_AT_EPOCH":71559,"BSTAR":3.1548303e-5,"MEAN_MOTION_DOT":4.6e-7,"MEAN_MOTION_DDOT":0},{"OBJECT_NAME":"SL-8 R/B","OBJECT_ID":"1992-020B","EPOCH":"2026-04-23T12:16:30.328032","MEAN_MOTION":13.75548747,"ECCENTRICITY":0.00292418,"INCLINATION":82.9269,"RA_OF_ASC_NODE":120.4723,"ARG_OF_PERICENTER":169.883,"MEAN_ANOMALY":310.1054,"EPHEMERIS_TYPE":0,"CLASSIFICATION_TYPE":"U","NORAD_CAT_ID":21938,"ELEMENT_SET_NO":999,"REV_AT_EPOCH":70729,"BSTAR":-5.6035306e-5,"MEAN_MOTION_DOT":-3.9e-7,"MEAN_MOTION_DDOT":0},{"OBJECT_NAME":"USA 81","OBJECT_ID":"1992-023A","EPOCH":"2026-04-23T00:26:15.365760","MEAN_MOTION":14.32381525,"ECCENTRICITY":0.00012684,"INCLINATION":85.0035,"RA_OF_ASC_NODE":105.8509,"ARG_OF_PERICENTER":99.1209,"MEAN_ANOMALY":261.0127,"EPHEMERIS_TYPE":0,"CLASSIFICATION_TYPE":"U","NORAD_CAT_ID":21949,"ELEMENT_SET_NO":999,"REV_AT_EPOCH":10113,"BSTAR":4.164093e-5,"MEAN_MOTION_DOT":1.32e-6,"MEAN_MOTION_DDOT":0},{"OBJECT_NAME":"COSMOS 2219","OBJECT_ID":"1992-076A","EPOCH":"2026-04-22T20:58:16.364064","MEAN_MOTION":14.14093399,"ECCENTRICITY":0.0016995,"INCLINATION":71.059,"RA_OF_ASC_NODE":285.7028,"ARG_OF_PERICENTER":137.3017,"MEAN_ANOMALY":222.943,"EPHEMERIS_TYPE":0,"CLASSIFICATION_TYPE":"U","NORAD_CAT_ID":22219,"ELEMENT_SET_NO":999,"REV_AT_EPOCH":72462,"BSTAR":0.00020442,"MEAN_MOTION_DOT":3.43e-6,"MEAN_MOTION_DDOT":0},{"OBJECT_NAME":"SL-16 R/B","OBJECT_ID":"1992-076B","EPOCH":"2026-04-23T07:45:38.638368","MEAN_MOTION":14.16866134,"ECCENTRICITY":0.00119293,"INCLINATION":70.9982,"RA_OF_ASC_NODE":94.353,"ARG_OF_PERICENTER":16.6488,"MEAN_ANOMALY":84.6583,"EPHEMERIS_TYPE":0,"CLASSIFICATION_TYPE":"U","NORAD_CAT_ID":22220,"ELEMENT_SET_NO":999,"REV_AT_EPOCH":72815,"BSTAR":-9.0344421e-5,"MEAN_MOTION_DOT":-2.29e-6,"MEAN_MOTION_DDOT":0},{"OBJECT_NAME":"COSMOS 2221","OBJECT_ID":"1992-080A","EPOCH":"2026-04-23T13:49:53.574528","MEAN_MOTION":14.96380019,"ECCENTRICITY":0.0015165,"INCLINATION":82.5043,"RA_OF_ASC_NODE":236.0737,"ARG_OF_PERICENTER":46.5379,"MEAN_ANOMALY":313.7101,"EPHEMERIS_TYPE":0,"CLASSIFICATION_TYPE":"U","NORAD_CAT_ID":22236,"ELEMENT_SET_NO":999,"REV_AT_EPOCH":78750,"BSTAR":0.0001126115,"MEAN_MOTION_DOT":1.304e-5,"MEAN_MOTION_DDOT":0},{"OBJECT_NAME":"SL-16 R/B","OBJECT_ID":"1992-093B","EPOCH":"2026-04-23T11:21:56.242368","MEAN_MOTION":14.15455846,"ECCENTRICITY":0.00061932,"INCLINATION":71.0205,"RA_OF_ASC_NODE":270.2498,"ARG_OF_PERICENTER":247.9428,"MEAN_ANOMALY":112.1038,"EPHEMERIS_TYPE":0,"CLASSIFICATION_TYPE":"U","NORAD_CAT_ID":22285,"ELEMENT_SET_NO":999,"REV_AT_EPOCH":71949,"BSTAR":0.000177116,"MEAN_MOTION_DOT":2.98e-6,"MEAN_MOTION_DDOT":0},{"OBJECT_NAME":"COSMOS 2228","OBJECT_ID":"1992-094A","EPOCH":"2026-04-23T11:53:42.429408","MEAN_MOTION":14.97401234,"ECCENTRICITY":0.00188935,"INCLINATION":82.5205,"RA_OF_ASC_NODE":194.416,"ARG_OF_PERICENTER":147.604,"MEAN_ANOMALY":212.6347,"EPHEMERIS_TYPE":0,"CLASSIFICATION_TYPE":"U","NORAD_CAT_ID":22286,"ELEMENT_SET_NO":999,"REV_AT_EPOCH":78276,"BSTAR":0.0001182698,"MEAN_MOTION_DOT":1.406e-5,"MEAN_MOTION_DDOT":0},{"OBJECT_NAME":"SL-16 R/B","OBJECT_ID":"1993-016B","EPOCH":"2026-04-23T07:21:17.672256","MEAN_MOTION":14.15310501,"ECCENTRICITY":0.00126174,"INCLINATION":71.0039,"RA_OF_ASC_NODE":121.4755,"ARG_OF_PERICENTER":257.9718,"MEAN_ANOMALY":101.9991,"EPHEMERIS_TYPE":0,"CLASSIFICATION_TYPE":"U","NORAD_CAT_ID":22566,"ELEMENT_SET_NO":999,"REV_AT_EPOCH":70848,"BSTAR":-0.00012324516,"MEAN_MOTION_DOT":-2.88e-6,"MEAN_MOTION_DDOT":0},{"OBJECT_NAME":"COSMOS 2242","OBJECT_ID":"1993-024A","EPOCH":"2026-04-23T13:32:39.687072","MEAN_MOTION":14.96734954,"ECCENTRICITY":0.00171162,"INCLINATION":82.5204,"RA_OF_ASC_NODE":223.7874,"ARG_OF_PERICENTER":150.4546,"MEAN_ANOMALY":209.7647,"EPHEMERIS_TYPE":0,"CLASSIFICATION_TYPE":"U","NORAD_CAT_ID":22626,"ELEMENT_SET_NO":999,"REV_AT_EPOCH":78710,"BSTAR":0.00011824072,"MEAN_MOTION_DOT":1.381e-5,"MEAN_MOTION_DDOT":0}]
